ONEWEB-0683             
1 56719U 23068K   24361.48220614  .00000195  00000+0  48455-3 0  9993
2 56719  87.9064   6.2335 0002016  94.9432 265.1928 13.15550859 78722
ONEWEB-0684             
1 56720U 23068L   24361.49013242  .00000071  00000+0  15499-3 0  9998
2 56720  87.9039   6.2932 0000727 149.3305 210.7868 13.15549078 78551
ONEWEB-0686             
1 56721U 23068M   24361.48919848  .00000128  00000+0  29999-3 0  9998
2 56721  87.9085 335.9465 0001804  96.8734 263.2602 13.16595728 80966
ONEWEB-0694             
1 56722U 23068N   24361.45593083 -.00001272  00000+0 -33615-2 0  9997
2 56722  87.9081 335.8727 0002336  90.5342 269.6057 13.16600322 81018
ONEWEB-0696             
1 56723U 23068P   24361.52340961  .00000075  00000+0  16640-3 0  9999
2 56723  87.9063   6.2766 0001452  88.8409 271.2888 13.15550430 78675
ONEWEB-0703             
1 56724U 23068Q   24361.53291176  .00000068  00000+0  14569-3 0  9994
2 56724  87.9064   6.2947 0001110  48.9899 311.1327 13.15550905 78566
ONEWEB-0721             
1 56725U 23068R   24361.58334491 -.00745522  00000+0 -65562+0 0  9996
2 56725  86.6759 257.9094 0007759 329.3087  18.0927 13.88264425  5436
ONEWEB-0015             
1 61594U 24188A   24361.45612814  .00005813  00000+0  71151-3 0  9999
2 61594  86.5757 141.6371 0004910  11.2478 348.8854 14.83047107 12935
